FLOCK 4S-25             
1 47542U 21006EC  21104.11791014  .00002475  00000-0  14488-3 0  9999
2 47542  97.4931 166.4367 0010033 328.7053  31.3579 15.12724233 11397
FLOCK 4S-1              
1 47543U 21006ED  21104.25080543  .00002532  00000-0  14819-3 0  9995
2 47543  97.4929 166.5655 0009470 325.5574  34.5042 15.12713926 11412
FLOCK 4S-30             
1 47544U 21006EE  21104.22508617  .00001911  00000-0  11515-3 0  9990
2 47544  97.4935 166.4523 0007534 344.9789  15.1216 15.11958026 13292
FLOCK 4S-23             
1 47545U 21006EF  21104.17924555  .00001718  00000-0  10152-3 0  9999
2 47545  97.4964 166.5398 0010383 326.5409  33.5165 15.12792540 13304
COSMOS 2549             
1 47546U 21008A   21104.39750466 -.00000060  00000-0  10873-4 0  9995
2 47546  67.1446 258.9176 0006345 257.7306 102.3068 13.96672206  9902
STARLINK-1782           
1 47548U 21009A   21104.58334491  .00067385  00000-0  73739-3 0  9996
2 47548  53.0511 144.4967 0004239   1.5071 139.1395 15.62685577  1770
STARLINK-1806           
1 47549U 21009B   21104.58334491 -.00037676  00000-0 -40715-3 0  9997
2 47549  53.0510 144.4927 0004066   7.4547 133.8230 15.62764599  1778
STARLINK-1909           
1 47550U 21009C   21104.58334491  .00067815  00000-0  74163-3 0  9999
2 47550  53.0527 144.4749 0003941  13.4189 138.6458 15.62700552  1774
STARLINK-1938           
1 47551U 21009D   21104.58334491  .00067751  00000-0  74098-3 0  9996
2 47551  53.0512 144.5328 0004398   5.6585 124.7854 15.62697017  1770
STARLINK-1940           
1 47552U 21009E   21104.58334491  .00067662  00000-0  74033-3 0  9997
2 47552  53.0511 144.4984 0004234   7.2684 132.1109 15.62687114  1777
STARLINK-1951           
1 47553U 21009F   21104.58334491  .00068831  00000-0  75188-3 0  9999
2 47553  53.0510 144.4909 0003795  12.4433 129.4541 15.62724248  1774
STARLINK-1953           
1 47554U 21009G   21104.58334491 -.00310528  00000-0 -95051-2 0  9995
2 47554  53.0514 150.6142 0004962 274.2963  41.6044 15.34567114  1768
STARLINK-1954           
1 47555U 21009H   21104.58334491  .00067072  00000-0  73296-3 0  9995
2 47555  53.0525 144.5148 0004017   7.4300 125.5394 15.62723855  1779
STARLINK-1955           
1 47556U 21009J   21104.58334491  .00043020  00000-0  28917-2 0  9992
2 47556  53.0519 157.7074 0001071  65.9916 206.3734 15.06370748  1757
STARLINK-1956           
1 47557U 21009K   21104.58334491  .00044539  00000-0  29929-2 0  9993
2 47557  53.0528 157.7004 0001511  51.5299  60.8941 15.06365880  1759
STARLINK-1957           
1 47558U 21009L   21104.58334491  .00066957  00000-0  73237-3 0  9994
2 47558  53.0509 144.4879 0004404   5.1676 141.1994 15.62699257  1773
STARLINK-1958           
1 47559U 21009M   21104.58334491  .00068267  00000-0  74631-3 0  9990
2 47559  53.0508 144.4670 0004137   9.8748 144.1030 15.62705979  1779
STARLINK-1959           
1 47560U 21009N   21104.58334491  .00067402  00000-0  73717-3 0  9996
2 47560  53.0513 144.4668 0003451  14.1425 141.1309 15.62703011  1774
STARLINK-1960           
1 47561U 21009P   21104.58334491 -.00314437  00000-0 -52555-2 0  9998
2 47561  53.0508 144.8920 0004566 274.0700  36.9542 15.52407253  1762
STARLINK-1961           
1 47562U 21009Q   21104.58334491  .00068293  00000-0  74669-3 0  9994
2 47562  53.0511 144.5155 0004169  12.7659 119.6168 15.62702154  1776
STARLINK-1962           
1 47563U 21009R   21104.58334491 -.00015116  00000-0 -15938-3 0  9997
2 47563  53.0510 144.5294 0004127   8.4120 120.1166 15.62764863  1779
STARLINK-1963           
1 47564U 21009S   21104.58334491  .00067515  00000-0  73782-3 0  9997
2 47564  53.0508 144.5010 0004085   5.5862 132.4887 15.62719990  1774
STARLINK-1964           
1 47565U 21009T   21104.58334491  .00066781  00000-0  73059-3 0  9999
2 47565  53.0511 144.4984 0004348 358.4707 140.2427 15.62695561  1772
STARLINK-1965           
1 47566U 21009U   21104.58334491  .00068194  00000-0  74534-3 0  9999
2 47566  53.0510 144.4769 0004414   6.5619 146.1607 15.62711060  1778
STARLINK-1966           
1 47567U 21009V   21104.58334491  .00046991  00000-0  31549-2 0  9999
2 47567  53.0506 157.7146 0001062  76.9974  95.4064 15.06373232  1755
STARLINK-1967           
1 47568U 21009W   21104.58334491  .00039104  00000-0  26313-2 0  9991
2 47568  53.0546 157.7122 0001468  62.1214 330.3007 15.06375693  1760
STARLINK-1968           
1 47569U 21009X   21104.58334491  .00021702  00000-0  39680-3 0  9999
2 47569  53.0516 148.7546 0004168   8.4572 207.7024 15.49328907  1767
STARLINK-1969           
1 47570U 21009Y   21104.58334491  .00068203  00000-0  74561-3 0  9995
2 47570  53.0508 144.4656 0004179   6.7121 147.9160 15.62706014  1779
STARLINK-1970           
1 47571U 21009Z   21104.58334491 -.00033253  00000-0 -35846-3 0  9998
2 47571  53.0510 144.4992 0004217   7.1273 132.8680 15.62763500  1775
STARLINK-1971           
1 47572U 21009AA  21104.58334491  .00068209  00000-0  74597-3 0  9992
2 47572  53.0511 144.4946 0003712  13.8489 129.3112 15.62697735  1775
STARLINK-1975           
1 47573U 21009AB  21104.58334491  .00066977  00000-0  73241-3 0  9998
2 47573  53.0508 144.4919 0004402   6.8483 140.1684 15.62705367  1771
STARLINK-1976           
1 47574U 21009AC  21104.58334491  .00046576  00000-0  31281-2 0  9999
2 47574  53.0488 157.7284 0001242  62.9838  89.4250 15.06364597  1753
STARLINK-1977           
1 47575U 21009AD  21104.58334491  .00046504  00000-0  31220-2 0  9994
2 47575  53.0522 157.7110 0000981  60.3713 152.0770 15.06380465  1750
STARLINK-1978           
1 47576U 21009AE  21104.58334491  .00067317  00000-0  73673-3 0  9999
2 47576  53.0511 144.4660 0003677  11.2637 142.1053 15.62685433  1778
STARLINK-1979           
1 47577U 21009AF  21104.58334491  .00026919  00000-0  29892-3 0  9997
2 47577  53.0527 144.5083 0004351   9.4292 127.3995 15.62740064  1774
STARLINK-1980           
1 47578U 21009AG  21104.58334491  .00068300  00000-0  74657-3 0  9997
2 47578  53.0511 144.5072 0004158   9.6968 126.4799 15.62708915  1774
STARLINK-1981           
1 47579U 21009AH  21104.58334491 -.00031969  00000-0 -34444-3 0  9991
2 47579  53.0510 144.5036 0004188   3.4919 133.9937 15.62756690  1775
STARLINK-1982           
1 47580U 21009AJ  21104.58334491  .00067531  00000-0  73855-3 0  9994
2 47580  53.0509 144.5116 0004292   6.5291 129.0329 15.62699564  1774
STARLINK-1984           
1 47581U 21009AK  21104.58334491  .00067974  00000-0  74285-3 0  9994
2 47581  53.0510 144.4722 0004195  10.9755 139.8114 15.62716171  1770
STARLINK-1986           
1 47582U 21009AL  21104.58334491  .00067957  00000-0  74349-3 0  9997
2 47582  53.0529 144.5329 0004199   5.7722 124.0568 15.62687737  1779
STARLINK-1987           
1 47583U 21009AM  21104.58334491  .00055499  00000-0  60802-3 0  9995
2 47583  53.0511 144.5108 0003950   5.5485 128.0779 15.62738082  1772
STARLINK-1988           
1 47584U 21009AN  21104.58334491 -.00033665  00000-0 -36308-3 0  9993
2 47584  53.0510 144.4809 0004237   1.4463 147.4764 15.62757453  1771
STARLINK-1989           
1 47585U 21009AP  21104.58334491 -.00316827  00000-0 -54675-2 0  9994
2 47585  53.0488 144.9560 0004603 274.2839 358.0971 15.51528378  1768
STARLINK-1990           
1 47586U 21009AQ  21104.58334491  .00041575  00000-0  27947-2 0  9990
2 47586  53.0528 157.7083 0001371  52.4774  19.9440 15.06384867  1755
STARLINK-1991           
1 47587U 21009AR  21104.58334491  .00066572  00000-0  72755-3 0  9993
2 47587  53.0509 144.4907 0004143  11.9099 130.6120 15.62724301  1774
STARLINK-1993           
1 47588U 21009AS  21104.58334491  .00069022  00000-0  75415-3 0  9993
2 47588  53.0519 144.5077 0004403   9.6365 124.6644 15.62714298  1772
STARLINK-1994           
1 47589U 21009AT  21104.58334491 -.00013538  00000-0 -14212-3 0  9995
2 47589  53.0528 144.5323 0004296   5.4255 125.6570 15.62759771  1773
STARLINK-1995           
1 47590U 21009AU  21104.58334491  .00043030  00000-0  28928-2 0  9993
2 47590  53.0529 157.7078 0001553  62.2575  30.1675 15.06365533  1759
STARLINK-1996           
1 47591U 21009AV  21104.58334491  .00067370  00000-0  73604-3 0  9999
2 47591  53.0511 144.5156 0004310   8.6753 123.0328 15.62726603  1778
STARLINK-1997           
1 47592U 21009AW  21104.58334491  .00044419  00000-0  29844-2 0  9995
2 47592  53.0529 157.7052 0000856  35.0327 217.3927 15.06372435  1759
STARLINK-1998           
1 47593U 21009AX  21104.58334491  .00040159  00000-0  27008-2 0  9993
2 47593  53.0554 157.7142 0001321  53.8239 358.6223 15.06383967  1767
STARLINK-1999           
1 47594U 21009AY  21104.58334491  .00045619  00000-0  30659-2 0  9996
2 47594  53.0527 157.7070 0001019  67.2302 165.2118 15.06349869  1759
STARLINK-2000           
1 47595U 21009AZ  21104.58334491  .00040108  00000-0  26982-2 0  9999
2 47595  53.0517 157.7070 0001094  57.5578 254.8329 15.06373191  1753
STARLINK-2001           
1 47596U 21009BA  21104.58334491  .00041449  00000-0  27882-2 0  9999
2 47596  53.0525 157.7093 0001264  59.0137 233.3961 15.06360707  1758
STARLINK-2002           
1 47597U 21009BB  21104.58334491  .00039130  00000-0  26322-2 0  9992
2 47597  53.0528 157.7099 0000924  54.4020 278.0160 15.06387040  1756
STARLINK-2003           
1 47598U 21009BC  21104.58334491  .00067098  00000-0  73406-3 0  9993
2 47598  53.0512 144.4899 0004290  10.3991 137.8482 15.62693865  1777
STARLINK-2004           
1 47599U 21009BD  21104.58334491  .00066776  00000-0  73072-3 0  9995
2 47599  53.0508 144.4691 0004231   7.5642 143.8791 15.62689478  1774
STARLINK-2005           
1 47600U 21009BE  21104.58334491  .00066998  00000-0  73320-3 0  9990
2 47600  53.0509 144.4770 0003760   8.4858 141.7016 15.62688415  1778
STARLINK-2006           
1 47601U 21009BF  21104.58334491  .00066990  00000-0  73234-3 0  9997
2 47601  53.0509 144.4748 0003892  12.3001 137.2416 15.62715157  1772
